     2              NAVIGATION DATA                         RINEX VERSION / TYPE
CCRINEXN V1.6.0 UX  CDDIS               08-MAR-26 18:53     PGM / RUN BY / DATE 
IGS BROADCAST EPHEMERIS FILE                                COMMENT             
    0.2421D-07  0.0000D+00 -0.1192D-06  0.5960D-07          ION ALPHA           
    0.1290D+06  0.0000D+00 -0.1966D+06 -0.6554D+05          ION BETA            
    0.931322574616D-09 0.355271367880D-14   233472     2409 DELTA-UTC: A0,A1,T,W
    18                                                      LEAP SECONDS        
                                                            END OF HEADER       
25 26  3  8  1 59 44.0 0.438812188804D-03-0.261479726760D-11 0.000000000000D+00
    0.900000000000D+01 0.616562500000D+02 0.439839749662D-08 0.309907008546D+01
    0.321865081787D-05 0.129315772792D-01 0.102054327726D-04 0.515372836876D+04
    0.718400000000D+04 0.689178705216D-07 0.820014016258D+00-0.465661287308D-07
    0.947582640815D+00 0.172187500000D+03 0.115745777656D+01-0.771817863598D-08
    0.392873507616D-10 0.100000000000D+01 0.240900000000D+04 0.000000000000D+00
    0.200000000000D+01 0.000000000000D+00 0.558793544769D-08 0.900000000000D+01
    0.180000000000D+02 0.400000000000D+01 0.000000000000D+00 0.000000000000D+00
 1 26  3  8  2  0  0.0 0.321284867823D-03-0.636646291241D-11 0.000000000000D+00
    0.140000000000D+03-0.734687500000D+02 0.466376569313D-08-0.718764360266D+00
   -0.383146107197D-05 0.159595825244D-02 0.638142228127D-05 0.515362273216D+04
    0.720000000000D+04-0.149011611938D-07 0.301332904932D+01 0.372529029846D-08
    0.958225301084D+00 0.254218750000D+03 0.959962966882D-01-0.823034282681D-08
   -0.180007498035D-09 0.100000000000D+01 0.240900000000D+04 0.000000000000D+00
    0.200000000000D+01 0.000000000000D+00-0.931322574615D-08 0.908000000000D+03
    0.715800000000D+04 0.400000000000D+01 0.000000000000D+00 0.000000000000D+00
 2 26  3  8  2  0  0.0 0.531771220267D-04 0.795807864051D-11 0.000000000000D+00
    0.110000000000D+02-0.682500000000D+02 0.470019578202D-08 0.752924761378D+00
   -0.381097197533D-05 0.168880686397D-01 0.524893403053D-05 0.515358808708D+04
    0.720000000000D+04 0.141561031342D-06 0.285088500049D+01-0.363215804100D-06
    0.963440241233D+00 0.281343750000D+03-0.809306711102D+00-0.840677874751D-08
   -0.177864551630D-09 0.100000000000D+01 0.240900000000D+04 0.000000000000D+00
    0.200000000000D+01 0.000000000000D+00-0.176951300000D-07 0.110000000000D+02
    0.489000000000D+04 0.400000000000D+01 0.000000000000D+00 0.000000000000D+00
 3 26  3  8  2  0  0.0 0.547197647393D-03-0.125055521494D-10 0.000000000000D+00
    0.940000000000D+02-0.226875000000D+02 0.368908223651D-08-0.283972371236D+01
   -0.115856528282D-05 0.649909372442D-02 0.105500221252D-04 0.515362762070D+04
    0.720000000000D+04 0.121071934700D-06-0.228299829549D+01-0.689178705216D-07
    0.993392135707D+00 0.190593750000D+03 0.120211109218D+01-0.748745473969D-08
    0.317156067966D-09 0.100000000000D+01 0.240900000000D+04 0.000000000000D+00
    0.280000000000D+01 0.000000000000D+00 0.139698386192D-08 0.940000000000D+02
    0.180000000000D+02 0.400000000000D+01 0.000000000000D+00 0.000000000000D+00
 4 26  3  8  2  0  0.0 0.477237626910D-04 0.181898940355D-11 0.000000000000D+00
    0.179000000000D+03-0.200000000000D+01 0.465412243431D-08 0.138472115805D+00
   -0.238418579102D-06 0.373147346545D-02 0.526010990143D-05 0.515372390175D+04
    0.720000000000D+04 0.558793544769D-08-0.121230559189D+01 0.260770320892D-07
    0.970414611012D+00 0.279843750000D+03-0.287811541091D+01-0.817069748520D-08
    0.878608026122D-10 0.100000000000D+01 0.240900000000D+04 0.000000000000D+00
    0.200000000000D+01 0.000000000000D+00-0.465661300000D-08 0.691000000000D+03
    0.600000000000D+02 0.400000000000D+01 0.000000000000D+00 0.000000000000D+00
 5 26  3  8  2  0  0.0-0.230000820011D-03-0.568434188608D-12 0.000000000000D+00
    0.820000000000D+02-0.336250000000D+02 0.405766901820D-08 0.803880028190D+00
   -0.159442424774D-05 0.540006137453D-02 0.102650374174D-04 0.515371167183D+04
    0.720000000000D+04-0.875443220139D-07-0.234280503153D+01 0.447034835815D-07
    0.979964635323D+00 0.195093750000D+03 0.141670293913D+01-0.783389774186D-08
    0.237867050975D-09 0.100000000000D+01 0.240900000000D+04 0.000000000000D+00
    0.280000000000D+01 0.000000000000D+00-0.107102096081D-07 0.820000000000D+02
    0.180000000000D+02 0.400000000000D+01 0.000000000000D+00 0.000000000000D+00
 6 26  3  8  2  0  0.0-0.612462870777D-03-0.568434188608D-12 0.000000000000D+00
    0.370000000000D+02-0.747500000000D+02 0.406838375023D-08-0.152543634420D+01
   -0.402703881264D-05 0.385110510979D-02 0.644475221634D-05 0.515363859749D+04
    0.720000000000D+04-0.614672899246D-07 0.296402012418D+01-0.465661287308D-07
    0.987093800853D+00 0.272937500000D+03-0.561592732569D+00-0.796997483859D-08
   -0.192865176466D-09 0.100000000000D+01 0.240900000000D+04 0.000000000000D+00
    0.200000000000D+01 0.000000000000D+00 0.372529029846D-08 0.370000000000D+02
    0.190000000000D+02 0.400000000000D+01 0.000000000000D+00 0.000000000000D+00
 7 26  3  8  2  0  0.0-0.157888978720D-03-0.488853402203D-11 0.000000000000D+00
    0.410000000000D+02-0.414062500000D+02 0.460662045566D-08-0.238602842666D+01
   -0.224635004997D-05 0.205099162413D-01 0.805780291557D-05 0.515362039948D+04
    0.720000000000D+04 0.238418579102D-06-0.203596203571D+00-0.502914190292D-07
    0.951302766881D+00 0.214250000000D+03-0.199041722951D+01-0.770032074927D-08
   -0.302155443130D-09 0.100000000000D+01 0.240900000000D+04 0.000000000000D+00
    0.200000000000D+01 0.000000000000D+00-0.107102096081D-07 0.410000000000D+02
    0.141000000000D+03 0.400000000000D+01 0.000000000000D+00 0.000000000000D+00
 8 26  3  8  2  0  0.0 0.481704715639D-03-0.568434188608D-11 0.000000000000D+00
    0.290000000000D+02 0.590625000000D+02 0.509985528659D-08 0.440871911971D+00
    0.317394733429D-05 0.115830933210D-01 0.327080488205D-05 0.515368835068D+04
    0.720000000000D+04 0.614672899246D-07 0.184350606595D+01 0.264495611191D-06
    0.943162256825D+00 0.307500000000D+03 0.524924316405D+00-0.862500212310D-08
    0.130005415247D-09 0.100000000000D+01 0.240900000000D+04 0.000000000000D+00
    0.200000000000D+01 0.000000000000D+00 0.465661300000D-08 0.290000000000D+02
    0.600000000000D+02 0.400000000000D+01 0.000000000000D+00 0.000000000000D+00
 9 26  3  8  2  0  0.0 0.767510849982D-03-0.159161572810D-11 0.000000000000D+00
    0.200000000000D+01 0.318750000000D+01 0.474305471012D-08 0.103189672618D+01
   -0.335276126862D-07 0.335206242744D-02 0.560656189919D-05 0.515376847458D+04
    0.720000000000D+04 0.186264514923D-08-0.127660915084D+01-0.521540641785D-07
    0.964569401867D+00 0.271625000000D+03 0.206813867601D+01-0.816426864599D-08
    0.179293182566D-09 0.100000000000D+01 0.240900000000D+04 0.000000000000D+00
    0.200000000000D+01 0.000000000000D+00 0.465661300000D-09 0.200000000000D+01
    0.600000000000D+02 0.400000000000D+01 0.000000000000D+00 0.000000000000D+00
10 26  3  8  2  0  0.0-0.590025447309D-03-0.568434188608D-12 0.000000000000D+00
    0.230000000000D+02-0.181562500000D+02 0.364693762388D-08 0.245203180133D+01
   -0.106357038021D-05 0.109416787745D-01 0.973045825958D-05 0.515365326881D+04
    0.720000000000D+04-0.242143869400D-07-0.228550915007D+01-0.199303030968D-06
    0.992927678235D+00 0.209812500000D+03-0.225565709683D+01-0.739673667520D-08
    0.268582616115D-09 0.100000000000D+01 0.240900000000D+04 0.000000000000D+00
    0.200000000000D+01 0.000000000000D+00 0.232830643654D-08 0.230000000000D+02
    0.370800000000D+04 0.400000000000D+01 0.000000000000D+00 0.000000000000D+00
11 26  3  8  2  0  0.0-0.414973590523D-03 0.129602995003D-10 0.000000000000D+00
    0.237000000000D+03-0.714375000000D+02 0.456447584303D-08-0.432983592899D+00
   -0.364147126675D-05 0.220190978143D-02 0.597722828388D-05 0.515357831383D+04
    0.720000000000D+04-0.111758708954D-07 0.298269065859D+01 0.651925802231D-07
    0.963959958973D+00 0.268593750000D+03-0.230336963602D+01-0.821462788651D-08
   -0.211794536378D-09 0.100000000000D+01 0.240900000000D+04 0.000000000000D+00
    0.200000000000D+01 0.000000000000D+00-0.884756445885D-08 0.100500000000D+04
    0.180000000000D+02 0.400000000000D+01 0.000000000000D+00 0.000000000000D+00
13 26  3  8  2  0  0.0 0.684310682118D-03-0.136424205266D-11 0.000000000000D+00
    0.500000000000D+01-0.115000000000D+02 0.460733477113D-08 0.194506037317D+00
   -0.432133674622D-06 0.100068479078D-01 0.543147325516D-05 0.515366540337D+04
    0.720000000000D+04-0.447034835815D-07-0.110137999530D+01 0.912696123123D-07
    0.976066685712D+00 0.280625000000D+03 0.996509540988D+00-0.823605735056D-08
    0.128576784311D-10 0.100000000000D+01 0.240900000000D+04 0.000000000000D+00
    0.200000000000D+01 0.000000000000D+00-0.116415321827D-07 0.500000000000D+01
    0.180000000000D+02 0.400000000000D+01 0.000000000000D+00 0.000000000000D+00
14 26  3  8  2  0  0.0 0.738173723221D-03 0.181898940355D-11 0.000000000000D+00
    0.158000000000D+03 0.813437500000D+02 0.453697469749D-08 0.307802325861D+01
    0.422447919846D-05 0.674115237780D-02 0.106021761894D-04 0.515366132546D+04
    0.720000000000D+04-0.298023223877D-07 0.859174721104D+00-0.838190317154D-07
    0.942537407941D+00 0.165156250000D+03-0.274752665635D+01-0.791782980939D-08
    0.778603860548D-10 0.100000000000D+01 0.240900000000D+04 0.000000000000D+00
    0.200000000000D+01 0.000000000000D+00-0.838190300000D-08 0.158000000000D+03
    0.564000000000D+04 0.400000000000D+01 0.000000000000D+00 0.000000000000D+00
